01263   10.2   0.15 K123E 120.73163  287.52314  158.51585   29.26455  0.1875058  0.22637383   2.6663587  0 E2012-E20   925  30 1933-2012 0.52 M-v 38h MPCLINUX   0000   (1263) Varsavia           20120227
01264    9.6   0.15 K123E  67.53241   30.00602  235.23736   25.02045  0.1561032  0.20357276   2.8619120  0 MPO210342   890  29 1933-2011 0.52 M-v 38h MPCLINUX   0000   (1264) Letaba             20111024
01265   11.1   0.15 K123E 353.20787  111.72724  314.39924    9.50354  0.0773996  0.18709456   3.0275775  0 E2012-E20   870  30 1911-2012 0.55 M-v 38h MPCLINUX   0000   (1265) Schweikarda        20120214
01266    9.41  0.15 K123E 147.38977  293.45891  321.00432   17.12541  0.0475868  0.15936229   3.3693464  0 E2012-E20   982  31 1933-2012 0.59 M-v 38h MPCLINUX   0000   (1266) Tone               20120212
01267   12.1   0.15 K123E 349.61151  267.09613   24.62178    4.78475  0.1791992  0.25413293   2.4684751  1 MPO  2605   183  21 1930-2000 0.90 M-v 38h Williams   0000   (1267) Geertruida         20000707
01268    9.12  0.15 K123E 262.89743  125.60566  351.77485    4.41772  0.1018371  0.12456919   3.9706563  0 MPO216433  1043  40 1930-2012 0.60 M-v 38h MPCLINUX   0008   (1268) Libya              20120103
01269    8.82  0.15 K123E  22.05053   18.41582  134.74876    2.75751  0.0995565  0.12779819   3.9034887  0 E2012-E20  1298  46 1907-2012 0.58 M-v 38h MPCLINUX   0008   (1269) Rollandia          20120226
01270   12.4   0.15 K123E 193.54985  258.78057   97.85590    5.98827  0.2076316  0.29499482   2.2349087  0 E2012-E20   991  22 1930-2012 0.58 M-v 38h MPCLINUX   0000   (1270) Datura             20120301
01271   10.2   0.15 K123E 168.35590  267.76887  127.36777    6.67813  0.1213188  0.17701390   3.1414571  0 MPO219515  1171  29 1931-2012 0.56 M-v 38h MPCLINUX   0000   (1271) Isergina           20120127
01272   12.9   0.15 K123E 150.29417    4.13593  321.58725    8.42353  0.1532893  0.21239371   2.7821141  0 E2012-E20   851  19 1931-2012 0.49 M-v 38h MPCLINUX   0000   (1272) Gefion             20120229
01273   12.8   0.15 K123E 167.54249   48.37884  296.63404    5.41128  0.1619566  0.26621803   2.3931931  0 E2012-E20  1119  26 1932-2012 0.54 M-v 38h MPCLINUX   0000   (1273) Helma              20120229
01274   11.82  0.15 K123E 161.45507  244.17888  327.24068    4.39753  0.1132142  0.29607118   2.2294888  0 MPO216433  1221  31 1926-2012 0.52 M-v 38h MPCLINUX   0000   (1274) Delportia          20120101
01275   10.72  0.15 K123E  54.52724  196.94292  188.58224   12.88034  0.1697112  0.22477429   2.6789933  0 E2012-E20   979  34 1932-2012 0.60 M-v 38h MPCLINUX   0000   (1275) Cimbria            20120222
01276   10.8   0.15 K123E  38.63488  332.94509  114.49449   23.27651  0.0951529  0.17415581   3.1757336  0 E2012-E20   833  27 1933-2012 0.55 M-v 38h MPCLINUX   0000   (1276) Ucclia             20120225
01277   11.05  0.15 K123E 230.47522   47.21911  247.18041    6.96581  0.2394086  0.22240234   2.6980075  0 E2012-E20  1234  30 1933-2012 0.58 M-v 38h MPCLINUX   0000   (1277) Dolores            20120225
01278   10.8   0.15 K123E 358.23484  238.69342   90.33435   10.85125  0.2613847  0.26419445   2.4053979  0 MPO219515  1158  28 1933-2011 0.53 M-v 38h MPCLINUX   0000   (1278) Kenya              20110702
01279   12.51  0.15 K123E 202.15405  297.85554  335.45396    5.72737  0.2115928  0.27034146   2.3687957  0 E2012-E20  1118  31 1933-2012 0.55 M-v 38h MPCLINUX   0000   (1279) Uganda             20120210
01280   10.33  0.15 K123E 109.12769   99.17007  293.11651    6.46036  0.0517031  0.15641643   3.4115190  0 E2012-E20  1033  32 1933-2012 0.56 M-v 38h MPCLINUX   0000   (1280) Baillauda          20120225
01281   11.6   0.15 K123E 110.29319   72.74971  210.19590    7.45073  0.2055915  0.24056355   2.5604492  0 MPO219515  1351  32 1929-2012 0.55 M-v 38h MPCLINUX   0000   (1281) Jeanne             20120202
01282   10.2   0.15 K123E  24.99776   79.70362  324.35609   18.03884  0.1260789  0.17909862   3.1170317  0 E2012-E20   787  28 1933-2012 0.57 M-v 38h MPCLINUX   0000   (1282) Utopia             20120211
01283   10.4   0.15 K123E 356.99794  235.68136  157.83876    8.90472  0.2214795  0.17340952   3.1848386  0 MPO216434  1197  28 1902-2011 0.58 M-v 38h MPCLINUX   0000   (1283) Komsomolia         20111218
01284   10.24  0.15 K123E  26.72527  114.18727  302.98615   10.87597  0.1714903  0.22911676   2.6450353  0 E2012-E20  1028  28 1933-2012 0.53 M-v 38h MPCLINUX   0000   (1284) Latvia             20120226
01285   10.9   0.15 K123E  15.71902   73.93919  318.04597    5.68593  0.0543851  0.19003672   2.9962476  0 MPO219515  1196  32 1933-2012 0.52 M-v 38h MPCLINUX   0000   (1285) Julietta           20120201
01286   10.88  0.15 K123E  18.55986  103.74121  200.89921    9.74083  0.0878525  0.18761900   3.0219331  0 MPO213849   913  37 1928-2011 0.61 M-v 38h MPCLINUX   0000   (1286) Banachiewicza      20111015
01287   11.07  0.15 K123E 254.69287  270.12554  202.69145    9.83316  0.0652488  0.18881012   3.0092103  0 MPO219515  1044  33 1933-2012 0.59 M-v 38h MPCLINUX   0000   (1287) Lorcia             20120101
01288   11.41  0.15 K123E 357.93592   55.86878  299.07986    7.56061  0.0617820  0.20120899   2.8842825  0 MPO213849   932  32 1933-2011 0.54 M-v 38h MPCLINUX   0000   (1288) Santa              20111117
01289   10.73  0.15 K123E 105.19603  118.97133  193.22505    1.61608  0.0615712  0.20343184   2.8632335  0 E2012-E20  1472  44 1928-2012 0.58 M-v 38h MPCLINUX   0000   (1289) Kutaissi           20120301
01290   12.8   0.15 K123E 174.55514   78.81624  307.42891    5.58701  0.1533338  0.27067523   2.3668481  0 MPO219515   988  21 1933-2012 0.54 M-v 38h MPCLINUX   0000   (1290) Albertine          20120202
01291   10.3   0.15 K123E  13.85997  117.38137  215.69962    9.12036  0.0893908  0.18847565   3.0127694  0 MPO213849  1107  33 1907-2011 0.59 M-v 38h MPCLINUX   0000   (1291) Phryne             20111022
01292   11.3   0.15 K123E 340.62299  242.86297  271.29763    2.15042  0.0579191  0.24328046   2.5413505  0 E2012-E20  1397  38 1929-2012 0.53 M-v 38h MPCLINUX   0000   (1292) Luce               20120219
01293   13.5   0.15 K123E 232.02302   99.42208  236.56205    5.36502  0.2742835  0.29636217   2.2280292  0 E2012-E20   985  19 1933-2012 0.55 M-v 38h MPCLINUX   0005   (1293) Sonja              20120301
01294   10.6   0.15 K123E 288.03973  313.58239   81.15995    8.73008  0.2334306  0.22384113   2.6864337  0 MPO213849   887  33 1917-2011 0.56 M-v 38h MPCLINUX   0000   (1294) Antwerpia          20110822
01295   10.7   0.15 K123E 176.45257  275.63828  185.14063    2.87580  0.1170479  0.15758976   3.3945644  0 MPO213849  1365  42 1933-2011 0.57 M-v 38h MPCLINUX   0000   (1295) Deflotte           20110828
01296   11.7   0.15 K123E 269.81003  236.80978  227.02959    4.10732  0.1431492  0.26229056   2.4170239  0 MPO213849  1030  34 1925-2011 0.51 M-v 38h MPCLINUX   0000   (1296) Andree             20111117
01297   10.9   0.15 K123E  14.84214  123.85439  295.97109    8.99978  0.0741281  0.18768108   3.0212666  0 E2012-E20   972  30 1927-2012 0.55 M-v 38h MPCLINUX   0000   (1297) Quadea             20120226
01298   10.9   0.15 K123E 154.42438   58.92031  300.04082    5.49033  0.1512848  0.17846173   3.1244433  0 E2012-E20  1007  29 1904-2012 0.58 M-v 38h MPCLINUX   0000   (1298) Nocturna           20120229
01299   11.4   0.15 K123E 267.56028  260.89396  165.66900    7.87211  0.1894416  0.21031700   2.8003982  0 MPO135423   869  30 1934-2007 0.61 M-v 38h MPCW       0000   (1299) Mertona            20071220
01300   11.4   0.15 K123E  24.52793  330.30121   82.95587    9.54682  0.0080527  0.21233628   2.7826158  0 E2012-E20  1018  32 1934-2012 0.55 M-v 38h MPCLINUX   0000   (1300) Marcelle           20120224
01301   11.3   0.15 K123E  28.63997  302.04826  161.61297   34.04191  0.2689100  0.21413264   2.7670317  0 E2012-E20   871  32 1934-2012 0.52 M-v 38h MPCLINUX   0000   (1301) Yvonne             20120225
01302   10.8   0.15 K123E 252.20734  355.42397   90.16351    2.59726  0.1747496  0.17953206   3.1120128  0 MPO169559  1036  34 1924-2009 0.54 M-v 38h MPCALI     0000   (1302) Werra              20090624
01303    9.4   0.15 K123E 218.85556  100.09892   72.13121   19.50273  0.1101844  0.17002419   3.2269747  0 MPO216434   917  29 1928-2011 0.54 M-v 38h MPCLINUX   0000   (1303) Luthera            20111116
01304    9.1   0.15 K123E 222.75091  147.94207   86.60397   18.98654  0.1154967  0.17230622   3.1984194  0 E2012-E20   992  37 1908-2012 0.52 M-v 38h MPCLINUX   0000   (1304) Arosa              20120226
01305   10.65  0.15 K123E  70.53889  148.61387   63.06120    2.31877  0.0758405  0.18856492   3.0118184  0 MPO213849  1253  42 1927-2011 0.58 M-v 38h MPCLINUX   0000   (1305) Pongola            20110823
01306    9.71  0.15 K123E 150.47381  137.76735  274.39056   14.93651  0.0948694  0.17659050   3.1464765  0 E2012-E20   898  31 1930-2012 0.54 M-v 38h MPCLINUX   0000   (1306) Scythia            20120205
01307   12.25  0.15 K123E 352.20692  206.97789  233.92593    3.94832  0.0970419  0.29188486   2.2507556  0 E2012-E20  1107  33 1930-2012 0.56 M-v 38h MPCLINUX   0000   (1307) Cimmeria           20120301
01308   10.8   0.15 K123E 124.05853  175.87082  354.24205    5.57153  0.0135063  0.19873508   2.9081693  0 MPO213849  1186  32 1931-2011 0.51 M-v 38h MPCLINUX   0000   (1308) Halleria           20110727
01309   10.3   0.15 K123E 308.31895  245.50829  206.17842   10.29179  0.1525777  0.17165113   3.2065519  0 MPO219516  1174  27 1919-2012 0.56 M-v 38h MPCLINUX   0000   (1309) Hyperborea         20120114
01310   11.45  0.15 K123E 263.96403   88.68549  357.35391   21.07759  0.3559178  0.26650506   2.3914745  0 MPO 87238   314  22 1932-2005 0.65 M-v 38h MPCW       0007   (1310) Villigera          20050916
01311   12.3   0.15 K123E   7.09721  242.00720  245.24653    2.83126  0.0431721  0.26077728   2.4263654  0 E2012-E20  1146  26 1933-2012 0.54 M-v 38h MPCLINUX   0000   (1311) Knopfia            20120226
